NORAD_CAT_ID,OBJECT_NAME,OBJECT_TYPE,EPOCH,MEAN_MOTION,ECCENTRICITY,INCLINATION,RA_OF_ASC_NODE,ARG_OF_PERICENTER,MEAN_ANOMALY,BSTAR,MEAN_MOTION_DOT,MEAN_MOTION_DDOT,TLE_LINE0,TLE_LINE1,TLE_LINE2,SEMIMAJOR_AXIS,PERIOD,APOGEE,PERIGEE,DECAYED
55766.0,STARLINK-5599,PAYLOAD,2024-01-23 06:37:19,14.98328557,0.0002755,70.0007,22.0809,269.7216,90.3628,5.0264e-06,-3.3e-07,0.0,0 STARLINK-5599,1 55766U 23028AB  24023.27592145 -.00000033  00000-0  50264-5 0  9999,2 55766  70.0007  22.0809 0002755 269.7216  90.3628 14.98328557 50238,6950.197,96.107,573.977,570.148,0.0
55766.0,STARLINK-5599,PAYLOAD,2024-01-23 09:49:35,14.98330953,0.0002731,70.0008,21.7444,269.6091,90.4755,3.1923e-05,2.88e-06,0.0,0 STARLINK-5599,1 55766U 23028AB  24023.40943912  .00000288  00000-0  31923-4 0  9997,2 55766  70.0008  21.7444 0002731 269.6091  90.4755 14.98330953 50251,6950.19,96.107,573.953,570.157,0.0
55766.0,STARLINK-5599,PAYLOAD,2024-01-24 03:27:04,14.98332701,0.0002598,70.0012,19.8929,266.9866,93.0996,2.9976e-05,2.65e-06,0.0,0 STARLINK-5599,1 55766U 23028AB  24024.14379686  .00000265  00000-0  29976-4 0  9990,2 55766  70.0012  19.8929 0002598 266.9866  93.0996 14.98332701 50353,6950.185,96.107,573.855,570.244,0.0
55766.0,STARLINK-5599,PAYLOAD,2024-01-24 09:51:45,14.98216527,0.0003356,70.001,19.2199,264.6307,95.4469,-0.0012489,-0.0001492,0.0,0 STARLINK-5599,1 55766U 23028AB  24024.41094418 -.00014920  00000-0 -12489-2 0  9991,2 55766  70.0010  19.2199 0003356 264.6307  95.4469 14.98216527 50394,6950.544,96.114,574.741,570.076,0.0
55766.0,STARLINK-5599,PAYLOAD,2024-01-25 03:29:56,14.97799184,0.0002412,70.001,17.3706,239.9323,120.1597,-0.0053768,-0.00062807,0.0,0 STARLINK-5599,1 55766U 23028AB  24025.14579068 -.00062807  00000-0 -53768-2 0  9993,2 55766  70.0010  17.3706 0002412 239.9323 120.1597 14.97799184 50507,6951.835,96.141,575.377,572.023,0.0
55766.0,STARLINK-5599,PAYLOAD,2024-01-25 08:18:34,14.97679731,0.000259,70.001,16.8647,267.6049,92.4813,-0.006401,-0.00074402,0.0,0 STARLINK-5599,1 55766U 23028AB  24025.34623831 -.00074402  00000-0 -64010-2 0  9999,2 55766  70.0010  16.8647 0002590 267.6049  92.4813 14.97679731 50535,6952.205,96.149,575.87,572.269,0.0
55766.0,STARLINK-5599,PAYLOAD,2024-01-26 03:33:13,14.97310315,0.0002745,70.0021,14.8519,262.821,97.2637,-0.0087971,-0.0010087,0.0,0 STARLINK-5599,1 55766U 23028AB  24026.14806953 -.00100870  00000-0 -87971-2 0  9996,2 55766  70.0021  14.8519 0002745 262.8210  97.2637 14.97310315 50652,6953.348,96.172,577.122,573.304,0.0
55766.0,STARLINK-5599,PAYLOAD,2024-01-26 14:00:01,14.96732828,0.0002767,70.0019,13.7508,273.0085,272.936,-0.0035808,-0.00040855,0.0,0 STARLINK-5599,1 55766U 23028AB  24026.58334491 -.00040855  00000-0 -35808-2 0  9995,2 55766  70.0019  13.7508 0002767 273.0085 272.9360 14.96732828 50722,6955.136,96.21,578.926,575.077,0.0
55766.0,STARLINK-5599,PAYLOAD,2024-01-26 22:00:00,14.96709528,0.0002778,70.0023,12.9125,265.8591,275.6368,0.0040037,0.00046029,0.0,0 STARLINK-5599,1 55766U 23028AB  24026.91667824  .00046029  00000-0  40037-2 0  9998,2 55766  70.0023  12.9125 0002778 265.8591 275.6368 14.96709528 50770,6955.209,96.211,579.006,575.141,0.0
55766.0,STARLINK-5599,PAYLOAD,2024-01-27 14:00:01,14.96727174,0.00028,70.0022,11.2356,269.0441,263.5654,-0.0028471,-0.00032537,0.0,0 STARLINK-5599,1 55766U 23028AB  24027.58334491 -.00032537  00000-0 -28471-2 0  9992,2 55766  70.0022  11.2356 0002800 269.0441 263.5654 14.96727174 50875,6955.154,96.21,578.966,575.071,0.0
55766.0,STARLINK-5599,PAYLOAD,2024-01-27 22:00:00,14.96648251,0.0002812,70.0027,10.3975,262.539,265.6245,0.020169,0.00238405,0.0,0 STARLINK-5599,1 55766U 23028AB  24027.91667824  .00238405  00000-0  20169-1 0  9993,2 55766  70.0027  10.3975 0002812 262.5390 265.6245 14.96648251 50924,6955.398,96.215,579.219,575.308,0.0
55766.0,STARLINK-5599,PAYLOAD,2024-01-28 06:00:00,14.96772463,0.0002842,70.0027,9.5592,268.46,255.2615,0.041838,0.00510496,0.0,0 STARLINK-5599,1 55766U 23028AB  24028.25001157  .00510496  00000-0  41838-1 0  9991,2 55766  70.0027   9.5592 0002842 268.4600 255.2615 14.96772463 50975,6955.014,96.207,578.855,574.902,0.0
55766.0,STARLINK-5599,PAYLOAD,2024-01-28 14:00:01,14.97113866,0.0002824,70.0026,8.7204,268.5974,250.9933,0.038283,0.00468779,0.0,0 STARLINK-5599,1 55766U 23028AB  24028.58335648  .00468779  00000-0  38283-1 0  9998,2 55766  70.0026   8.7204 0002824 268.5974 250.9933 14.97113866  5781,6953.956,96.185,577.785,573.857,0.0
55766.0,STARLINK-5599,PAYLOAD,2024-01-28 22:00:00,14.97425504,0.0002894,70.003,7.8815,263.2326,252.4931,0.042606,0.00524394,0.0,0 STARLINK-5599,1 55766U 23028AB  24028.91667824  .00524394  00000-0  42606-1 0  9999,2 55766  70.0030   7.8815 0002894 263.2326 252.4931 14.97425504  5795,6952.991,96.165,576.869,572.844,0.0
55766.0,STARLINK-5599,PAYLOAD,2024-01-29 00:30:28,14.97134256,0.0002144,70.0012,7.6185,253.4932,106.5991,0.0043562,0.00050672,0.0,0 STARLINK-5599,1 55766U 23028AB  24029.02116439  .00050672  00000-0  43562-2 0  9999,2 55766  70.0012   7.6185 0002144 253.4932 106.5991 14.97134256 51084,6953.893,96.184,577.249,574.267,0.0
55766.0,STARLINK-5599,PAYLOAD,2024-01-29 08:31:14,14.97350174,0.0002482,70.0013,6.7772,263.964,96.1236,0.0063423,0.00074483,0.0,0 STARLINK-5599,1 55766U 23028AB  24029.35503437  .00074483  00000-0  63423-2 0  9997,2 55766  70.0013   6.7772 0002482 263.9640  96.1236 14.97350174 51135,6953.225,96.17,576.815,573.364,0.0
55766.0,STARLINK-5599,PAYLOAD,2024-01-29 19:43:54,14.97838287,0.0003556,70.0005,5.5968,284.0462,76.0302,0.010616,0.00127281,0.0,0 STARLINK-5599,1 55766U 23028AB  24029.82215765  .00127281  00000-0  10616-1 0  9993,2 55766  70.0005   5.5968 0003556 284.0462  76.0302 14.97838287 51204,6951.714,96.139,576.051,571.107,0.0
55766.0,STARLINK-5599,PAYLOAD,2024-01-29 21:20:17,14.97675886,0.0002664,70.0026,5.4343,247.94,112.1476,0.00861,0.00102411,0.0,0 STARLINK-5599,1 55766U 23028AB  24029.88909445  .00102411  00000-0  86100-2 0  9994,2 55766  70.0026   5.4343 0002664 247.9400 112.1476 14.97675886 51222,6952.216,96.149,575.933,572.229,0.0
55766.0,STARLINK-5599,PAYLOAD,2024-01-30 06:00:00,14.98318433,0.0002858,70.003,4.522,271.6559,232.5073,0.00025437,2.943e-05,0.0,0 STARLINK-5599,1 55766U 23028AB  24030.25001157  .00002943  00000-0  25437-3 0  9996,2 55766  70.0030   4.5220 0002858 271.6559 232.5073 14.98318433 51262,6950.229,96.108,574.08,570.107,0.0
55766.0,STARLINK-5599,PAYLOAD,2024-01-30 14:00:01,14.98341157,0.0002758,70.0026,3.6816,270.4946,231.1375,-0.0029124,-0.00034681,0.0,0 STARLINK-5599,1 55766U 23028AB  24030.58334491 -.00034681  00000-0 -29124-2 0  9994,2 55766  70.0026   3.6816 0002758 270.4946 231.1375 14.98341157  5745,6950.158,96.106,573.94,570.107,0.0
55766.0,STARLINK-5599,PAYLOAD,2024-01-31 00:00:02,14.9835634,0.0002798,70.003,2.6311,267.0357,321.4976,-0.0021271,-0.00025398,0.0,0 STARLINK-5599,1 55766U 23028AB  24031.00002315 -.00025398  00000-0 -21271-2 0  9999,2 55766  70.0030   2.6311 0002798 267.0357 321.4976 14.98356340  5752,6950.111,96.105,573.921,570.032,0.0
55766.0,STARLINK-5599,PAYLOAD,2024-01-31 06:00:02,14.98340792,0.0002765,70.0027,2.0008,274.2335,222.4345,-0.0021655,-0.00025843,0.0,0 STARLINK-5599,1 55766U 23028AB  24031.25002315 -.00025843  00000-0 -21655-2 0  9997,2 55766  70.0027   2.0008 0002765 274.2335 222.4345 14.98340792 51413,6950.16,96.106,573.946,570.103,0.0
55766.0,STARLINK-5599,PAYLOAD,2024-01-31 14:00:01,14.98331812,0.000271,70.0023,1.1604,273.162,220.9893,-0.002586,-0.00030814,0.0,0 STARLINK-5599,1 55766U 23028AB  24031.58335648 -.00030814  00000-0 -25860-2 0  9997,2 55766  70.0023   1.1604 0002710 273.1620 220.9893 14.98331812  5699,6950.187,96.107,573.936,570.169,0.0
55766.0,STARLINK-5599,PAYLOAD,2024-01-31 22:00:00,14.98329478,0.000272,70.0026,0.32,268.0185,223.5369,0.001782,0.00021233,0.0,0 STARLINK-5599,1 55766U 23028AB  24031.91667824  .00021233  00000-0  17820-2 0  9998,2 55766  70.0026   0.3200 0002720 268.0185 223.5369 14.98329478 51519,6950.195,96.107,573.95,570.169,0.0
55766.0,STARLINK-5599,PAYLOAD,2024-02-01 14:00:01,14.98341548,0.0002752,70.0021,358.6391,272.2322,214.2848,-0.002483,-0.00029603,0.0,0 STARLINK-5599,1 55766U 23028AB  24032.58334491 -.00029603  00000-0 -24830-2 0  9993,2 55766  70.0021 358.6391 0002752 272.2322 214.2848 14.98341548 51611,6950.157,96.106,573.935,570.109,0.0
55766.0,STARLINK-5599,PAYLOAD,2024-02-01 22:00:00,14.98342296,0.0002765,70.0024,357.7987,266.8313,217.1628,0.0010918,0.00012962,0.0,0 STARLINK-5599,1 55766U 23028AB  24032.91667824  .00012962  00000-0  10918-2 0  9999,2 55766  70.0024 357.7987 0002765 266.8313 217.1628 14.98342296  5795,6950.155,96.106,573.942,570.098,0.0
55766.0,STARLINK-5599,PAYLOAD,2024-02-02 03:51:27,14.98333006,0.0002407,70.0013,357.1852,252.9416,107.148,2.889e-05,2.52e-06,0.0,0 STARLINK-5599,1 55766U 23028AB  24033.16073385  .00000252  00000-0  28890-4 0  9999,2 55766  70.0013 357.1852 0002407 252.9416 107.1480 14.98333006 51706,6950.184,96.107,573.722,570.376,0.0
55766.0,STARLINK-5599,PAYLOAD,2024-02-02 07:03:43,14.98334648,0.0002457,70.0009,356.8471,271.9193,88.1685,5.2257e-05,5.31e-06,0.0,0 STARLINK-5599,1 55766U 23028AB  24033.29425278  .00000531  00000-0  52257-4 0  9999,2 55766  70.0009 356.8471 0002457 271.9193  88.1685 14.98334648 51733,6950.179,96.107,573.751,570.336,0.0
55766.0,STARLINK-5599,PAYLOAD,2024-02-02 21:28:56,14.98327731,0.0002349,70.0012,355.3312,272.8949,87.1941,1.8948e-05,1.33e-06,0.0,0 STARLINK-5599,1 55766U 23028AB  24033.89509792  .00000133  00000-0  18948-4 0  9996,2 55766  70.0012 355.3312 0002349 272.8949  87.1941 14.98327731 51823,6950.2,96.107,573.698,570.432,0.0
55766.0,STARLINK-5599,PAYLOAD,2024-02-03 03:53:28,14.98325511,0.0002427,70.0009,354.6579,268.2697,91.8184,1.285e-05,6e-07,0.0,0 STARLINK-5599,1 55766U 23028AB  24034.16213913  .00000060  00000-0  12850-4 0  9999,2 55766  70.0009 354.6579 0002427 268.2697  91.8184 14.98325511 51850,6950.207,96.107,573.759,570.385,0.0
